{
  "type": "FeatureCollection",
  "features": [
    {
      "type": "Feature",
      "properties": {
        "norad_id": 66504,
        "name": "STARLINK-35916",
        "group": "last-30-days",
        "lat": -7.068234870962306,
        "lon": -9.637369245218919,
        "alt_km": 439.3000263484828,
        "timestamp": "2025-12-06T11:28:09.785901+00:00",
        "meta_object_name": "STARLINK-35916",
        "meta_object_id": "2025-263V",
        "meta_epoch": "2025-12-05T22:00:03.000096",
        "meta_mean_motion": 15.4482183,
        "meta_eccentricity": 0.00014137,
        "meta_inclination": 43.0002,
        "meta_ra_of_asc_node": 165.965,
        "meta_arg_of_pericenter": 262.0895,
        "meta_mean_anomaly": 45.9684,
        "meta_ephemeris_type": 0,
        "meta_classification_type": "U",
        "meta_norad_cat_id": 66504,
        "meta_element_set_no": 999,
        "meta_rev_at_epoch": 453,
        "meta_bstar": -0.045718178,
        "meta_mean_motion_dot": -0.01961087,
        "meta_mean_motion_ddot": 0,
        "tle_line1": "1 66504U 25263V   25339.91670139 -.01961087  00000+0 -45718-1 0  9996",
        "tle_line2": "2 66504  43.0002 165.9650 0001413 262.0895  45.9684 15.44821830  4539"
      },
      "geometry": {
        "type": "Point",
        "coordinates": [
          -9.637369245218919,
          -7.068234870962306
        ]
      }
    },
    {
      "type": "Feature",
      "properties": {
        "norad_id": 66505,
        "name": "STARLINK-34766",
        "group": "last-30-days",
        "lat": -22.248735443485476,
        "lon": 7.811674805938496,
        "alt_km": 393.5650350396554,
        "timestamp": "2025-12-06T11:28:09.785925+00:00",
        "meta_object_name": "STARLINK-34766",
        "meta_object_id": "2025-263W",
        "meta_epoch": "2025-12-05T22:00:03.000096",
        "meta_mean_motion": 15.60898494,
        "meta_eccentricity": 0.00016759,
        "meta_inclination": 42.9994,
        "meta_ra_of_asc_node": 165.0989,
        "meta_arg_of_pericenter": 269.0766,
        "meta_mean_anomaly": 29.8114,
        "meta_ephemeris_type": 0,
        "meta_classification_type": "U",
        "meta_norad_cat_id": 66505,
        "meta_element_set_no": 999,
        "meta_rev_at_epoch": 453,
        "meta_bstar": -0.026127911,
        "meta_mean_motion_dot": -0.01976415,
        "meta_mean_motion_ddot": 0,
        "tle_line1": "1 66505U 25263W   25339.91670139 -.01976415  00000+0 -26128-1 0  9992",
        "tle_line2": "2 66505  42.9994 165.0989 0001675 269.0766  29.8114 15.60898494  4535"
      },
      "geometry": {
        "type": "Point",
        "coordinates": [
          7.811674805938496,
          -22.248735443485476
        ]
      }
    },
    {
      "type": "Feature",
      "properties": {
        "norad_id": 66506,
        "name": "STARLINK-34765",
        "group": "last-30-days",
        "lat": -23.414071401637912,
        "lon": 9.458221029738848,
        "alt_km": 393.6564120706462,
        "timestamp": "2025-12-06T11:28:09.785943+00:00",
        "meta_object_name": "STARLINK-34765",
        "meta_object_id": "2025-263X",
        "meta_epoch": "2025-12-05T22:00:03.000096",
        "meta_mean_motion": 15.60897398,
        "meta_eccentricity": 0.00016284,
        "meta_inclination": 42.9996,
        "meta_ra_of_asc_node": 165.0951,
        "meta_arg_of_pericenter": 269.9479,
        "meta_mean_anomaly": 30.8583,
        "meta_ephemeris_type": 0,
        "meta_classification_type": "U",
        "meta_norad_cat_id": 66506,
        "meta_element_set_no": 999,
        "meta_rev_at_epoch": 453,
        "meta_bstar": -0.026117542,
        "meta_mean_motion_dot": -0.01975616,
        "meta_mean_motion_ddot": 0,
        "tle_line1": "1 66506U 25263X   25339.91670139 -.01975616  00000+0 -26118-1 0  9994",
        "tle_line2": "2 66506  42.9996 165.0951 0001628 269.9479  30.8583 15.60897398  4539"
      },
      "geometry": {
        "type": "Point",
        "coordinates": [
          9.458221029738848,
          -23.414071401637912
        ]
      }
    },
    {
      "type": "Feature",
      "properties": {
        "norad_id": 66507,
        "name": "STARLINK-34767",
        "group": "last-30-days",
        "lat": -25.69089470359667,
        "lon": 12.838107122567155,
        "alt_km": 393.7111030493943,
        "timestamp": "2025-12-06T11:28:09.785958+00:00",
        "meta_object_name": "STARLINK-34767",
        "meta_object_id": "2025-263Y",
        "meta_epoch": "2025-12-05T22:00:03.000096",
        "meta_mean_motion": 15.60903207,
        "meta_eccentricity": 0.00016025,
        "meta_inclination": 42.9994,
        "meta_ra_of_asc_node": 165.0841,
        "meta_arg_of_pericenter": 267.5693,
        "meta_mean_anomaly": 37.0688,
        "meta_ephemeris_type": 0,
        "meta_classification_type": "U",
        "meta_norad_cat_id": 66507,
        "meta_element_set_no": 999,
        "meta_rev_at_epoch": 453,
        "meta_bstar": -0.026208125,
        "meta_mean_motion_dot": -0.01982004,
        "meta_mean_motion_ddot": 0,
        "tle_line1": "1 66507U 25263Y   25339.91670139 -.01982004  00000+0 -26208-1 0  9994",
        "tle_line2": "2 66507  42.9994 165.0841 0001602 267.5693  37.0688 15.60903207  4532"
      },
      "geometry": {
        "type": "Point",
        "coordinates": [
          12.838107122567155,
          -25.69089470359667
        ]
      }
    },
    {
      "type": "Feature",
      "properties": {
        "norad_id": 66508,
        "name": "STARLINK-35608",
        "group": "last-30-days",
        "lat": -28.948437808645775,
        "lon": 18.15531729520394,
        "alt_km": 393.7995820653805,
        "timestamp": "2025-12-06T11:28:09.785974+00:00",
        "meta_object_name": "STARLINK-35608",
        "meta_object_id": "2025-263Z",
        "meta_epoch": "2025-12-05T22:00:03.000096",
        "meta_mean_motion": 15.6089527,
        "meta_eccentricity": 0.00016783,
        "meta_inclination": 42.9993,
        "meta_ra_of_asc_node": 165.0704,
        "meta_arg_of_pericenter": 268.7735,
        "meta_mean_anomaly": 41.6172,
        "meta_ephemeris_type": 0,
        "meta_classification_type": "U",
        "meta_norad_cat_id": 66508,
        "meta_element_set_no": 999,
        "meta_rev_at_epoch": 453,
        "meta_bstar": -0.026043074,
        "meta_mean_motion_dot": -0.01970563,
        "meta_mean_motion_ddot": 0,
        "tle_line1": "1 66508U 25263Z   25339.91670139 -.01970563  00000+0 -26043-1 0  9999",
        "tle_line2": "2 66508  42.9993 165.0704 0001678 268.7735  41.6172 15.60895270  4532"
      },
      "geometry": {
        "type": "Point",
        "coordinates": [
          18.15531729520394,
          -28.948437808645775
        ]
      }
    },
    {
      "type": "Feature",
      "properties": {
        "norad_id": 66509,
        "name": "STARLINK-35598",
        "group": "last-30-days",
        "lat": -32.9359811791452,
        "lon": 25.765220335659816,
        "alt_km": 393.88185250203605,
        "timestamp": "2025-12-06T11:28:09.785992+00:00",
        "meta_object_name": "STARLINK-35598",
        "meta_object_id": "2025-263AA",
        "meta_epoch": "2025-12-05T22:00:03.000096",
        "meta_mean_motion": 15.60904495,
        "meta_eccentricity": 0.00017192,
        "meta_inclination": 42.9994,
        "meta_ra_of_asc_node": 165.049,
        "meta_arg_of_pericenter": 267.7138,
        "meta_mean_anomaly": 50.3404,
        "meta_ephemeris_type": 0,
        "meta_classification_type": "U",
        "meta_norad_cat_id": 66509,
        "meta_element_set_no": 999,
        "meta_rev_at_epoch": 453,
        "meta_bstar": -0.02619677,
        "meta_mean_motion_dot": -0.01981426,
        "meta_mean_motion_ddot": 0,
        "tle_line1": "1 66509U 25263AA  25339.91670139 -.01981426  00000+0 -26197-1 0  9990",
        "tle_line2": "2 66509  42.9994 165.0490 0001719 267.7138  50.3404 15.60904495  4533"
      },
      "geometry": {
        "type": "Point",
        "coordinates": [
          25.765220335659816,
          -32.9359811791452
        ]
      }
    },
    {
      "type": "Feature",
      "properties": {
        "norad_id": 66510,
        "name": "STARLINK-35600",
        "group": "last-30-days",
        "lat": -29.987019784569153,
        "lon": 19.998654225602216,
        "alt_km": 393.8823015232965,
        "timestamp": "2025-12-06T11:28:09.786008+00:00",
        "meta_object_name": "STARLINK-35600",
        "meta_object_id": "2025-263AB",
        "meta_epoch": "2025-12-05T22:00:03.000096",
        "meta_mean_motion": 15.60901712,
        "meta_eccentricity": 0.0001579,
        "meta_inclination": 42.9992,
        "meta_ra_of_asc_node": 165.064,
        "meta_arg_of_pericenter": 268.1567,
        "meta_mean_anomaly": 44.1498,
        "meta_ephemeris_type": 0,
        "meta_classification_type": "U",
        "meta_norad_cat_id": 66510,
        "meta_element_set_no": 999,
        "meta_rev_at_epoch": 453,
        "meta_bstar": -0.026168825,
        "meta_mean_motion_dot": -0.01979278,
        "meta_mean_motion_ddot": 0,
        "tle_line1": "1 66510U 25263AB  25339.91670139 -.01979278  00000+0 -26169-1 0  9993",
        "tle_line2": "2 66510  42.9992 165.0640 0001579 268.1567  44.1498 15.60901712  4538"
      },
      "geometry": {
        "type": "Point",
        "coordinates": [
          19.998654225602216,
          -29.987019784569153
        ]
      }
    }
  ]
}